start=new Date('2023-01-26T00:00:00.000Z').valueOf();
sats=[{"EPHEMERIS_TYPE":"0","EPOCH":"2023-01-25T15:05:06.591264","DECAY_DATE":null,"CLASSIFICATION_TYPE":"U","MEAN_ELEMENT_THEORY":"SGP4","PERIAPSIS":"545.908","MEAN_MOTION":"15.06406631","MEAN_MOTION_DDOT":"0.0000000000000","PERIOD":"95.592","SITE":"AFETR","ELEMENT_SET_NO":"999","LAUNCH_DATE":"2021-03-14","MEAN_ANOMALY":"269.9040","SEMIMAJOR_AXIS":"6925.328","OBJECT_ID":"2021-021AU","ECCENTRICITY":"0.00018560","OBJECT_TYPE":"PAYLOAD","ARG_OF_PERICENTER":"90.2162","GP_ID":"223716054","TIME_SYSTEM":"UTC","COUNTRY_CODE":"US","APOAPSIS":"548.479","FILE":"3761360","TLE_LINE1":"1 47902U 21021AU  23025.62854851  .00008437  00000-0  58454-3 0  9990","BSTAR":"0.00058454000000","MEAN_MOTION_DOT":"0.00008437","TLE_LINE2":"2 47902  53.0520 355.0702 0001856  90.2162 269.9040 15.06406631104479","REV_AT_EPOCH":"10447","CENTER_NAME":"EARTH","RA_OF_ASC_NODE":"355.0702","OBJECT_NAME":"STARLINK-2362","INCLINATION":"53.0520","NORAD_CAT_ID":"47902","RCS_SIZE":"LARGE","REF_FRAME":"TEME"},{"CENTER_NAME":"EARTH","RA_OF_ASC_NODE":"335.2586","OBJECT_NAME":"STARLINK-2363","INCLINATION":"53.0519","NORAD_CAT_ID":"47903","REF_FRAME":"TEME","RCS_SIZE":"LARGE","TLE_LINE1":"1 47903U 21021AV  23025.58521452  .00004814  00000-0  34194-3 0  9994","BSTAR":"0.00034194000000","TLE_LINE2":"2 47903  53.0519 335.2586 0001624  82.6281 277.4892 15.06394249104984","MEAN_MOTION_DOT":"0.00004814","REV_AT_EPOCH":"10498","SITE":"AFETR","MEAN_ANOMALY":"277.4892","ELEMENT_SET_NO":"999","LAUNCH_DATE":"2021-03-14","SEMIMAJOR_AXIS":"6925.366","OBJECT_TYPE":"PAYLOAD","ECCENTRICITY":"0.00016240","OBJECT_ID":"2021-021AV","TIME_SYSTEM":"UTC","GP_ID":"223687506","ARG_OF_PERICENTER":"82.6281","COUNTRY_CODE":"US","FILE":"3761297","APOAPSIS":"548.356","EPHEMERIS_TYPE":"0","DECAY_DATE":null,"EPOCH":"2023-01-25T14:02:42.534528","CLASSIFICATION_TYPE":"U","PERIAPSIS":"546.107","MEAN_ELEMENT_THEORY":"SGP4","MEAN_MOTION_DDOT":"0.0000000000000","MEAN_MOTION":"15.06394249","PERIOD":"95.593"},{"INCLINATION":"53.0525","RCS_SIZE":"LARGE","REF_FRAME":"TEME","NORAD_CAT_ID":"47904","RA_OF_ASC_NODE":"335.2822","CENTER_NAME":"EARTH","OBJECT_NAME":"STARLINK-2364","MEAN_MOTION_DOT":"0.00008835","TLE_LINE2":"2 47904  53.0525 335.2822 0001914  83.5727 276.5480 15.06402236104622","BSTAR":"0.00061126000000","REV_AT_EPOCH":"10462","TLE_LINE1":"1 47904U 21021AW  23025.58247336  .00008835  00000-0  61126-3 0  9993","GP_ID":"223687254","ARG_OF_PERICENTER":"83.5727","TIME_SYSTEM":"UTC","ECCENTRICITY":"0.00019140","OBJECT_ID":"2021-021AW","OBJECT_TYPE":"PAYLOAD","APOAPSIS":"548.532","FILE":"3761297","COUNTRY_CODE":"US","SITE":"AFETR","SEMIMAJOR_AXIS":"6925.342","ELEMENT_SET_NO":"999","LAUNCH_DATE":"2021-03-14","MEAN_ANOMALY":"276.5480","MEAN_MOTION":"15.06402236","MEAN_MOTION_DDOT":"0.0000000000000","PERIOD":"95.592","EPOCH":"2023-01-25T13:58:45.698304","DECAY_DATE":null,"EPHEMERIS_TYPE":"0","PERIAPSIS":"545.881","MEAN_ELEMENT_THEORY":"SGP4","CLASSIFICATION_TYPE":"U"},{"FILE":"3761360","APOAPSIS":"548.763","COUNTRY_CODE":"US","TIME_SYSTEM":"UTC","ARG_OF_PERICENTER":"81.1876","GP_ID":"223715802","OBJECT_TYPE":"PAYLOAD","ECCENTRICITY":"0.00022250","OBJECT_ID":"2021-021AX","SEMIMAJOR_AXIS":"6925.357","MEAN_ANOMALY":"278.9365","LAUNCH_DATE":"2021-03-14","ELEMENT_SET_NO":"999","SITE":"AFETR","PERIOD":"95.592","MEAN_MOTION":"15.06397304","MEAN_MOTION_DDOT":"0.0000000000000","MEAN_ELEMENT_THEORY":"SGP4","PERIAPSIS":"545.681","CLASSIFICATION_TYPE":"U","DECAY_DATE":null,"EPOCH":"2023-01-25T20:14:15.370944","EPHEMERIS_TYPE":"0","REF_FRAME":"TEME","RCS_SIZE":"LARGE","NORAD_CAT_ID":"47905","INCLINATION":"53.0535","OBJECT_NAME":"STARLINK-2365","RA_OF_ASC_NODE":"334.0984","CENTER_NAME":"EARTH","REV_AT_EPOCH":"10479","TLE_LINE2":"2 47905  53.0535 334.0984 0002225  81.1876 278.9365 15.06397304104790","MEAN_MOTION_DOT":"0.00001852","BSTAR":"0.00014320000000","TLE_LINE1":"1 47905U 21021AX  23025.84323346  .00001852  00000-0  14320-3 0  9995"},{"REV_AT_EPOCH":"10857","TLE_LINE2":"2 47906  53.0097  62.1159 0001414  98.9635 261.1544 15.76728578108576","MEAN_MOTION_DOT":"0.00001613","BSTAR":"0.00001385400000","TLE_LINE1":"1 47906U 21021AY  23025.81332773  .00001613  00000-0  13854-4 0  9994","REF_FRAME":"TEME","RCS_SIZE":"LARGE","NORAD_CAT_ID":"47906","INCLINATION":"53.0097","OBJECT_NAME":"STARLINK-2366","RA_OF_ASC_NODE":"62.1159","CENTER_NAME":"EARTH","PERIOD":"91.328","MEAN_MOTION_DDOT":"0.0000000000000","MEAN_MOTION":"15.76728578","MEAN_ELEMENT_THEORY":"SGP4","PERIAPSIS":"338.769","CLASSIFICATION_TYPE":"U","DECAY_DATE":null,"EPOCH":"2023-01-25T19:31:11.515872","EPHEMERIS_TYPE":"0","FILE":"3761360","APOAPSIS":"340.669","COUNTRY_CODE":"US","TIME_SYSTEM":"UTC","GP_ID":"223716554","ARG_OF_PERICENTER":"98.9635","OBJECT_TYPE":"PAYLOAD","ECCENTRICITY":"0.00014140","OBJECT_ID":"2021-021AY","SEMIMAJOR_AXIS":"6717.854","MEAN_ANOMALY":"261.1544","ELEMENT_SET_NO":"999","LAUNCH_DATE":"2021-03-14","SITE":"AFETR"},{"TLE_LINE2":"2 47907  53.0544 357.0344 0001704  94.5570 265.5614 15.06412581104263","MEAN_MOTION_DOT":"0.00009714","BSTAR":"0.00066993000000","REV_AT_EPOCH":"10426","TLE_LINE1":"1 47907U 21021AZ  23025.18992076  .00009714  00000-0  66993-3 0  9994","INCLINATION":"53.0544","REF_FRAME":"TEME","RCS_SIZE":"LARGE","NORAD_CAT_ID":"47907","RA_OF_ASC_NODE":"357.0344","CENTER_NAME":"EARTH","OBJECT_NAME":"STARLINK-2367","MEAN_MOTION_DDOT":"0.0000000000000","MEAN_MOTION":"15.06412581","PERIOD":"95.591","DECAY_DATE":null,"EPOCH":"2023-01-25T04:33:29.153664","EPHEMERIS_TYPE":"0","MEAN_ELEMENT_THEORY":"SGP4","PERIAPSIS":"545.995","CLASSIFICATION_TYPE":"U","TIME_SYSTEM":"UTC","ARG_OF_PERICENTER":"94.5570","GP_ID":"223687006","OBJECT_TYPE":"PAYLOAD","OBJECT_ID":"2021-021AZ","ECCENTRICITY":"0.00017040","FILE":"3761297","APOAPSIS":"548.355","COUNTRY_CODE":"US","SITE":"AFETR","SEMIMAJOR_AXIS":"6925.310","MEAN_ANOMALY":"265.5614","LAUNCH_DATE":"2021-03-14","ELEMENT_SET_NO":"999"},{"OBJECT_NAME":"STARLINK-2368","RA_OF_ASC_NODE":"356.4034","CENTER_NAME":"EARTH","RCS_SIZE":"LARGE","REF_FRAME":"TEME","NORAD_CAT_ID":"47908","INCLINATION":"53.0560","TLE_LINE1":"1 47908U 21021BA  23025.32998180  .00007128  00000-0  49671-3 0  9994","REV_AT_EPOCH":"10431","MEAN_MOTION_DOT":"0.00007128","TLE_LINE2":"2 47908  53.0560 356.4034 0001713  94.6870 265.4315 15.06415602104315","BSTAR":"0.00049671000000","SEMIMAJOR_AXIS":"6925.301","ELEMENT_SET_NO":"999","LAUNCH_DATE":"2021-03-14","MEAN_ANOMALY":"265.4315","SITE":"AFETR","APOAPSIS":"548.352","FILE":"3761297","COUNTRY_CODE":"US","GP_ID":"223687755","ARG_OF_PERICENTER":"94.6870","TIME_SYSTEM":"UTC","ECCENTRICITY":"0.00017130","OBJECT_ID":"2021-021BA","OBJECT_TYPE":"PAYLOAD","MEAN_ELEMENT_THEORY":"SGP4","PERIAPSIS":"545.979","CLASSIFICATION_TYPE":"U","EPOCH":"2023-01-25T07:55:10.427520","DECAY_DATE":null,"EPHEMERIS_TYPE":"0","PERIOD":"95.591","MEAN_MOTION":"15.06415602","MEAN_MOTION_DDOT":"0.0000000000000"},{"REF_FRAME":"TEME","RCS_SIZE":"LARGE","NORAD_CAT_ID":"47909","INCLINATION":"53.0554","OBJECT_NAME":"STARLINK-2369","RA_OF_ASC_NODE":"345.1456","CENTER_NAME":"EARTH","REV_AT_EPOCH":"10466","TLE_LINE2":"2 47909  53.0554 345.1456 0001141  94.7996 265.3124 15.06390667104665","MEAN_MOTION_DOT":"-0.00002622","BSTAR":"-0.00015725000000","TLE_LINE1":"1 47909U 21021BB  23025.61103922 -.00002622  00000-0 -15725-3 0  9998","FILE":"3761360","APOAPSIS":"548.032","COUNTRY_CODE":"US","TIME_SYSTEM":"UTC","GP_ID":"223715303","ARG_OF_PERICENTER":"94.7996","OBJECT_TYPE":"PAYLOAD","ECCENTRICITY":"0.00011410","OBJECT_ID":"2021-021BB","SEMIMAJOR_AXIS":"6925.377","MEAN_ANOMALY":"265.3124","ELEMENT_SET_NO":"999","LAUNCH_DATE":"2021-03-14","SITE":"AFETR","PERIOD":"95.593","MEAN_MOTION":"15.06390667","MEAN_MOTION_DDOT":"0.0000000000000","MEAN_ELEMENT_THEORY":"SGP4","PERIAPSIS":"546.452","CLASSIFICATION_TYPE":"U","DECAY_DATE":null,"EPOCH":"2023-01-25T14:39:53.788608","EPHEMERIS_TYPE":"0"},{"DECAY_DATE":null,"EPOCH":"2023-01-25T20:18:13.717440","EPHEMERIS_TYPE":"0","MEAN_ELEMENT_THEORY":"SGP4","PERIAPSIS":"545.757","CLASSIFICATION_TYPE":"U","MEAN_MOTION_DDOT":"0.0000000000000","MEAN_MOTION":"15.06408715","PERIOD":"95.592","SITE":"AFETR","SEMIMAJOR_AXIS":"6925.322","MEAN_ANOMALY":"270.3228","ELEMENT_SET_NO":"999","LAUNCH_DATE":"2021-03-14","TIME_SYSTEM":"UTC","GP_ID":"223716055","ARG_OF_PERICENTER":"89.7997","OBJECT_TYPE":"PAYLOAD","OBJECT_ID":"2021-021BC","ECCENTRICITY":"0.00020650","FILE":"3761360","APOAPSIS":"548.617","COUNTRY_CODE":"US","TLE_LINE1":"1 47910U 21021BC  23025.84599210  .00009082  00000-0  62764-3 0  9994","TLE_LINE2":"2 47910  53.0545 344.0882 0002065  89.7997 270.3228 15.06408715104552","MEAN_MOTION_DOT":"0.00009082","BSTAR":"0.00062764000000","REV_AT_EPOCH":"10455","RA_OF_ASC_NODE":"344.0882","CENTER_NAME":"EARTH","OBJECT_NAME":"STARLINK-2370","INCLINATION":"53.0545","REF_FRAME":"TEME","RCS_SIZE":"LARGE","NORAD_CAT_ID":"47910"},{"PERIOD":"95.592","MEAN_MOTION_DDOT":"0.0000000000000","MEAN_MOTION":"15.06395298","PERIAPSIS":"545.925","MEAN_ELEMENT_THEORY":"SGP4","CLASSIFICATION_TYPE":"U","EPOCH":"2023-01-25T15:54:54.888192","DECAY_DATE":null,"EPHEMERIS_TYPE":"0","APOAPSIS":"548.531","FILE":"3761360","COUNTRY_CODE":"US","ARG_OF_PERICENTER":"87.7658","GP_ID":"223716805","TIME_SYSTEM":"UTC","ECCENTRICITY":"0.00018810","OBJECT_ID":"2021-021BD","OBJECT_TYPE":"PAYLOAD","SEMIMAJOR_AXIS":"6925.363","LAUNCH_DATE":"2021-03-14","ELEMENT_SET_NO":"999","MEAN_ANOMALY":"272.3546","SITE":"AFETR","REV_AT_EPOCH":"10414","MEAN_MOTION_DOT":"0.00000970","TLE_LINE2":"2 47911  53.0537   0.1594 0001881  87.7658 272.3546 15.06395298104142","BSTAR":"0.00008402400000","TLE_LINE1":"1 47911U 21021BD  23025.66313528  .00000970  00000-0  84024-4 0  9992","RCS_SIZE":"LARGE","REF_FRAME":"TEME","NORAD_CAT_ID":"47911","INCLINATION":"53.0537","OBJECT_NAME":"STARLINK-2371","RA_OF_ASC_NODE":"0.1594","CENTER_NAME":"EARTH"}];
